ONEWEB-0012             
1 44057U 19010A   25236.56104240 -.00000042  00000+0 -14388-3 0  9995
2 44057  87.9008 287.9273 0002392  91.0370 269.1036 13.16592970312532
ONEWEB-0010             
1 44058U 19010B   25236.58638140 -.00001490  00000+0 -39316-2 0  9994
2 44058  87.9008 287.9054 0001791  83.9538 276.1797 13.16601624312582
ONEWEB-0008             
1 44059U 19010C   25236.53570964  .00000036  00000+0  59550-4 0  9996
2 44059  87.9008 287.9133 0002037 100.9832 259.1528 13.16594852312691
ONEWEB-0007             
1 44060U 19010D   25236.25911731  .00000059  00000+0  12211-3 0  9995
2 44060  87.9070 318.4645 0001910  89.1027 271.0322 13.15547523312331
ONEWEB-0006             
1 44061U 19010E   25236.26306438 -.00000042  00000+0 -14635-3 0  9995
2 44061  87.9071 318.4048 0001767  91.5065 268.6268 13.15550115312386
ONEWEB-0011             
1 44062U 19010F   25236.61168998  .00000142  00000+0  34198-3 0  9997
2 44062  87.9075 318.3469 0001732 103.3064 256.8260 13.15548743312420
ONEWEB-0013             
1 45131U 20008A   25236.61659512 -.00000535  00000+0 -15904-2 0  9992
2 45131  87.8522 112.7209 0002730  76.9700 283.1732 13.09433474267257
ONEWEB-0017             
1 45132U 20008B   25236.57993662  .00000026  00000+0  37102-4 0  9994
2 45132  87.8765  95.4336 0001475  76.5296 283.5995 13.10379066269105
